CCSDS_OMM_VERS = 2.0
CREATION_DATE  = 
ORIGINATOR     = 

OBJECT_NAME    = STARLINK-35794
OBJECT_ID      = 2025-298L
CENTER_NAME    = EARTH
REF_FRAME      = TEME
TIME_SYSTEM    = UTC
MEAN_ELEMENT_THEORY = SGP/SGP4

EPOCH          = 2026-01-12T17:43:47.631072
MEAN_MOTION    = 15.42739617
ECCENTRICITY   = .0003419
INCLINATION    = 70.0006
RA_OF_ASC_NODE = 163.6645
ARG_OF_PERICENTER = 267.4552
MEAN_ANOMALY   = 92.6239

EPHEMERIS_TYPE = 0
CLASSIFICATION_TYPE = U
NORAD_CAT_ID   = 67085
ELEMENT_SET_NO = 999
REV_AT_EPOCH   = 463
BSTAR          = .1063E-2
MEAN_MOTION_DOT = .46727E-3
MEAN_MOTION_DDOT = 0

CCSDS_OMM_VERS = 2.0
CREATION_DATE  = 
ORIGINATOR     = 

OBJECT_NAME    = STARLINK-35841
OBJECT_ID      = 2025-298M
CENTER_NAME    = EARTH
REF_FRAME      = TEME
TIME_SYSTEM    = UTC
MEAN_ELEMENT_THEORY = SGP/SGP4

EPOCH          = 2026-01-11T09:25:46.364736
MEAN_MOTION    = 15.52059546
ECCENTRICITY   = .0001612
INCLINATION    = 70.0000
RA_OF_ASC_NODE = 166.9856
ARG_OF_PERICENTER = 234.0987
MEAN_ANOMALY   = 126.0050

EPHEMERIS_TYPE = 0
CLASSIFICATION_TYPE = U
NORAD_CAT_ID   = 67086
ELEMENT_SET_NO = 999
REV_AT_EPOCH   = 443
BSTAR          = .78226181E-3
MEAN_MOTION_DOT = .4745E-3
MEAN_MOTION_DDOT = 0

CCSDS_OMM_VERS = 2.0
CREATION_DATE  = 
ORIGINATOR     = 

OBJECT_NAME    = STARLINK-35842
OBJECT_ID      = 2025-298N
CENTER_NAME    = EARTH
REF_FRAME      = TEME
TIME_SYSTEM    = UTC
MEAN_ELEMENT_THEORY = SGP/SGP4

EPOCH          = 2026-01-12T20:19:55.476768
MEAN_MOTION    = 15.42731683
ECCENTRICITY   = .0003596
INCLINATION    = 69.9994
RA_OF_ASC_NODE = 163.6474
ARG_OF_PERICENTER = 279.9542
MEAN_ANOMALY   = 80.1234

EPHEMERIS_TYPE = 0
CLASSIFICATION_TYPE = U
NORAD_CAT_ID   = 67087
ELEMENT_SET_NO = 999
REV_AT_EPOCH   = 464
BSTAR          = .10509E-2
MEAN_MOTION_DOT = .46181E-3
MEAN_MOTION_DDOT = 0

CCSDS_OMM_VERS = 2.0
CREATION_DATE  = 
ORIGINATOR     = 

OBJECT_NAME    = STARLINK-35882
OBJECT_ID      = 2025-298P
CENTER_NAME    = EARTH
REF_FRAME      = TEME
TIME_SYSTEM    = UTC
MEAN_ELEMENT_THEORY = SGP/SGP4

EPOCH          = 2026-01-12T20:00:04.000032
MEAN_MOTION    = 15.42707306
ECCENTRICITY   = .0003824
INCLINATION    = 69.9995
RA_OF_ASC_NODE = 163.1146
ARG_OF_PERICENTER = 297.4969
MEAN_ANOMALY   = 124.9385

EPHEMERIS_TYPE = 0
CLASSIFICATION_TYPE = U
NORAD_CAT_ID   = 67088
ELEMENT_SET_NO = 999
REV_AT_EPOCH   = 597
BSTAR          = .16939E-2
MEAN_MOTION_DOT = .74744E-3
MEAN_MOTION_DDOT = 0

CCSDS_OMM_VERS = 2.0
CREATION_DATE  = 
ORIGINATOR     = 

OBJECT_NAME    = STARLINK-35763
OBJECT_ID      = 2025-298Q
CENTER_NAME    = EARTH
REF_FRAME      = TEME
TIME_SYSTEM    = UTC
MEAN_ELEMENT_THEORY = SGP/SGP4

EPOCH          = 2026-01-12T17:23:18.027744
MEAN_MOTION    = 15.42729204
ECCENTRICITY   = .0003861
INCLINATION    = 69.9999
RA_OF_ASC_NODE = 163.6110
ARG_OF_PERICENTER = 280.2000
MEAN_ANOMALY   = 79.8746

EPHEMERIS_TYPE = 0
CLASSIFICATION_TYPE = U
NORAD_CAT_ID   = 67089
ELEMENT_SET_NO = 999
REV_AT_EPOCH   = 463
BSTAR          = .13199E-2
MEAN_MOTION_DOT = .58129E-3
MEAN_MOTION_DDOT = 0

CCSDS_OMM_VERS = 2.0
CREATION_DATE  = 
ORIGINATOR     = 

OBJECT_NAME    = STARLINK-36060
OBJECT_ID      = 2025-298R
CENTER_NAME    = EARTH
REF_FRAME      = TEME
TIME_SYSTEM    = UTC
MEAN_ELEMENT_THEORY = SGP/SGP4

EPOCH          = 2026-01-12T20:00:04.000032
MEAN_MOTION    = 15.42677815
ECCENTRICITY   = .0003677
INCLINATION    = 69.9992
RA_OF_ASC_NODE = 163.2125
ARG_OF_PERICENTER = 277.5083
MEAN_ANOMALY   = 57.0122

EPHEMERIS_TYPE = 0
CLASSIFICATION_TYPE = U
NORAD_CAT_ID   = 67090
ELEMENT_SET_NO = 999
REV_AT_EPOCH   = 591
BSTAR          = .19565E-2
MEAN_MOTION_DOT = .86399E-3
MEAN_MOTION_DDOT = 0

CCSDS_OMM_VERS = 2.0
CREATION_DATE  = 
ORIGINATOR     = 

OBJECT_NAME    = STARLINK-36097
OBJECT_ID      = 2025-298S
CENTER_NAME    = EARTH
REF_FRAME      = TEME
TIME_SYSTEM    = UTC
MEAN_ELEMENT_THEORY = SGP/SGP4

EPOCH          = 2026-01-12T20:12:24.553440
MEAN_MOTION    = 15.42723215
ECCENTRICITY   = .0003198
INCLINATION    = 70.0005
RA_OF_ASC_NODE = 163.2150
ARG_OF_PERICENTER = 284.6101
MEAN_ANOMALY   = 75.4726

EPHEMERIS_TYPE = 0
CLASSIFICATION_TYPE = U
NORAD_CAT_ID   = 67091
ELEMENT_SET_NO = 999
REV_AT_EPOCH   = 465
BSTAR          = .1052E-2
MEAN_MOTION_DOT = .46213E-3
MEAN_MOTION_DDOT = 0

CCSDS_OMM_VERS = 2.0
CREATION_DATE  = 
ORIGINATOR     = 

OBJECT_NAME    = STARLINK-35792
OBJECT_ID      = 2025-298T
CENTER_NAME    = EARTH
REF_FRAME      = TEME
TIME_SYSTEM    = UTC
MEAN_ELEMENT_THEORY = SGP/SGP4

EPOCH          = 2026-01-12T20:18:06.822720
MEAN_MOTION    = 15.42725897
ECCENTRICITY   = .0003527
INCLINATION    = 70.0007
RA_OF_ASC_NODE = 163.2301
ARG_OF_PERICENTER = 268.9818
MEAN_ANOMALY   = 91.0960

EPHEMERIS_TYPE = 0
CLASSIFICATION_TYPE = U
NORAD_CAT_ID   = 67092
ELEMENT_SET_NO = 999
REV_AT_EPOCH   = 465
BSTAR          = .12844E-2
MEAN_MOTION_DOT = .56539E-3
MEAN_MOTION_DDOT = 0

CCSDS_OMM_VERS = 2.0
CREATION_DATE  = 
ORIGINATOR     = 

OBJECT_NAME    = STARLINK-35784
OBJECT_ID      = 2025-298U
CENTER_NAME    = EARTH
REF_FRAME      = TEME
TIME_SYSTEM    = UTC
MEAN_ELEMENT_THEORY = SGP/SGP4

EPOCH          = 2026-01-12T17:34:58.189152
MEAN_MOTION    = 15.42728776
ECCENTRICITY   = .0003721
INCLINATION    = 70.0000
RA_OF_ASC_NODE = 163.6401
ARG_OF_PERICENTER = 276.4005
MEAN_ANOMALY   = 83.6753

EPHEMERIS_TYPE = 0
CLASSIFICATION_TYPE = U
NORAD_CAT_ID   = 67093
ELEMENT_SET_NO = 999
REV_AT_EPOCH   = 463
BSTAR          = .14981E-2
MEAN_MOTION_DOT = .6606E-3
MEAN_MOTION_DDOT = 0

CCSDS_OMM_VERS = 2.0
CREATION_DATE  = 
ORIGINATOR     = 

OBJECT_NAME    = STARLINK-36202
OBJECT_ID      = 2025-298V
CENTER_NAME    = EARTH
REF_FRAME      = TEME
TIME_SYSTEM    = UTC
MEAN_ELEMENT_THEORY = SGP/SGP4

EPOCH          = 2026-01-12T17:29:00.894048
MEAN_MOTION    = 15.42693305
ECCENTRICITY   = .0003508
INCLINATION    = 70.0012
RA_OF_ASC_NODE = 163.6247
ARG_OF_PERICENTER = 272.2080
MEAN_ANOMALY   = 87.8700

EPHEMERIS_TYPE = 0
CLASSIFICATION_TYPE = U
NORAD_CAT_ID   = 67094
ELEMENT_SET_NO = 999
REV_AT_EPOCH   = 463
BSTAR          = .14129E-2
MEAN_MOTION_DOT = .62188E-3
MEAN_MOTION_DDOT = 0

CCSDS_OMM_VERS = 2.0
CREATION_DATE  = 
ORIGINATOR     = 

OBJECT_NAME    = STARLINK-36227
OBJECT_ID      = 2025-298W
CENTER_NAME    = EARTH
REF_FRAME      = TEME
TIME_SYSTEM    = UTC
MEAN_ELEMENT_THEORY = SGP/SGP4

EPOCH          = 2026-01-12T20:00:04.000032
MEAN_MOTION    = 15.42635188
ECCENTRICITY   = .0003261
INCLINATION    = 69.9992
RA_OF_ASC_NODE = 163.1878
ARG_OF_PERICENTER = 281.0518
MEAN_ANOMALY   = 75.5917

EPHEMERIS_TYPE = 0
CLASSIFICATION_TYPE = U
NORAD_CAT_ID   = 67095
ELEMENT_SET_NO = 999
REV_AT_EPOCH   = 591
BSTAR          = .20504E-2
MEAN_MOTION_DOT = .90469E-3
MEAN_MOTION_DDOT = 0

CCSDS_OMM_VERS = 2.0
CREATION_DATE  = 
ORIGINATOR     = 

OBJECT_NAME    = STARLINK-36228
OBJECT_ID      = 2025-298X
CENTER_NAME    = EARTH
REF_FRAME      = TEME
TIME_SYSTEM    = UTC
MEAN_ELEMENT_THEORY = SGP/SGP4

EPOCH          = 2026-01-12T20:00:04.000032
MEAN_MOTION    = 15.45625514
ECCENTRICITY   = .0003055
INCLINATION    = 69.9992
RA_OF_ASC_NODE = 163.0351
ARG_OF_PERICENTER = 278.9305
MEAN_ANOMALY   = 208.8121

EPHEMERIS_TYPE = 0
CLASSIFICATION_TYPE = U
NORAD_CAT_ID   = 67096
ELEMENT_SET_NO = 999
REV_AT_EPOCH   = 591
BSTAR          = -.55629E-1
MEAN_MOTION_DOT = -.2395016E-1
MEAN_MOTION_DDOT = 0

