STARLINK-35794          
1 67085U 25298L   26012.73874573  .00046727  00000+0  10630-2 0  9994
2 67085  70.0006 163.6645 0003419 267.4552  92.6239 15.42739617  4639
STARLINK-35841          
1 67086U 25298M   26011.39289774  .00047450  00000+0  78226-3 0  9999
2 67086  70.0000 166.9856 0001612 234.0987 126.0050 15.52059546  4437
STARLINK-35842          
1 67087U 25298N   26012.84716987  .00046181  00000+0  10509-2 0  9991
2 67087  69.9994 163.6474 0003596 279.9542  80.1234 15.42731683  4640
STARLINK-35882          
1 67088U 25298P   26012.83337963  .00074744  00000+0  16939-2 0  9993
2 67088  69.9995 163.1146 0003824 297.4969 124.9385 15.42707306  5971
STARLINK-35763          
1 67089U 25298Q   26012.72451421  .00058129  00000+0  13199-2 0  9992
2 67089  69.9999 163.6110 0003861 280.2000  79.8746 15.42729204  4631
STARLINK-36060          
1 67090U 25298R   26012.83337963  .00086399  00000+0  19565-2 0  9993
2 67090  69.9992 163.2125 0003677 277.5083  57.0122 15.42677815  5911
STARLINK-36097          
1 67091U 25298S   26012.84195085  .00046213  00000+0  10520-2 0  9995
2 67091  70.0005 163.2150 0003198 284.6101  75.4726 15.42723215  4656
STARLINK-35792          
1 67092U 25298T   26012.84591230  .00056539  00000+0  12844-2 0  9991
2 67092  70.0007 163.2301 0003527 268.9818  91.0960 15.42725897  4655
STARLINK-35784          
1 67093U 25298U   26012.73261793  .00066060  00000+0  14981-2 0  9992
2 67093  70.0000 163.6401 0003721 276.4005  83.6753 15.42728776  4636
STARLINK-36202          
1 67094U 25298V   26012.72848257  .00062188  00000+0  14129-2 0  9999
2 67094  70.0012 163.6247 0003508 272.2080  87.8700 15.42693305  4635
STARLINK-36227          
1 67095U 25298W   26012.83337963  .00090469  00000+0  20504-2 0  9996
2 67095  69.9992 163.1878 0003261 281.0518  75.5917 15.42635188  5916
STARLINK-36228          
1 67096U 25298X   26012.83337963 -.02395016  00000+0 -55629-1 0  9992
2 67096  69.9992 163.0351 0003055 278.9305 208.8121 15.45625514  5915
